H-2A R/B                
1 28932U 06002B   26154.34353747  .00006795  00000+0  32869-3 0  9993
2 28932  98.2551 308.9228 0049694 310.5493  49.1416 15.17883795107428
RESURS-DK 1             
1 29228U 06021A   26154.61613614  .00002412  00000+0  14180-3 0  9993
2 29228  69.9332  14.6820 0005978 304.1389  55.9210 15.13152913100526
CZ-4B R/B               
1 29507U 06046C   26154.60546181  .00004913  00000+0  24425-3 0  9994
2 29507  97.5455 199.2549 0031733 332.0223  27.9303 15.17677148 73079
CZ-2C R/B               
1 31114U 07010B   26154.32245812  .00000119  00000+0  73246-4 0  9999
2 31114  98.4088 263.3526 0059778  46.1443 314.4652 14.20272773991878
COSMO-SKYMED 1          
1 31598U 07023A   26154.96782571  .00002311  00000+0  20583-3 0  9998
2 31598  97.8863 346.7136 0001584  82.2640 277.8761 14.97041170 27819
COSMOS 2428             
1 31792U 07029A   26154.62167010 -.00000182  00000+0 -72203-4 0  9991
2 31792  70.9382  22.9610 0007400 160.8368 199.3033 14.12931511976239
SL-16 R/B               
1 31793U 07029B   26154.60507443  .00000160  00000+0  10774-3 0  9996
2 31793  70.9758 351.7816 0002314 257.9016 159.5807 14.14847422977524
KORONAS-FOTON           
1 33504U 09003A   26154.87099459  .00011693  00000+0  24313-3 0  9991
2 33504  82.4287 186.1475 0010207 193.1457 166.9527 15.45435833959044
CZ-2C R/B               
1 37731U 11030B   26154.47530979  .00001526  00000+0  19691-3 0  9990
2 37731  97.8649 110.1101 0053827  71.6498  44.8087 14.81436160802792
H-2A R/B                
1 38341U 12025E   26154.50940823  .00002975  00000+0  26862-3 0  9997
2 38341  98.4819 128.5293 0044764  33.2155 327.1859 14.95636773761048
SHIJIAN-16 (SJ-16)      
1 39358U 13057A   26154.96790449  .00001094  00000+0  10896-3 0  9990
2 39358  74.9733  21.7220 0016973 261.0734  98.8533 14.92578745684372
SL-4 R/B                
1 39679U 14021B   26154.64686584  .00012294  00000+0  25569-3 0  9994
2 39679  51.6063 277.0919 0091705  56.7885 304.1851 15.41642817669522
ALOS-2                  
1 39766U 14029A   26154.95075120  .00001350  00000+0  18760-3 0  9997
2 39766  97.9215 252.3038 0001587  89.3799 270.7594 14.79483127649622
YAOGAN-29               
1 41038U 15069A   26154.95402144  .00000121  00000+0  21516-4 0  9996
2 41038  98.0027 183.5652 0002944  75.9587 284.1953 14.83071936568669
ASTRO-H (HITOMI)        
1 41337U 16012A   26153.29804336  .00002399  00000+0  13655-3 0  9995
2 41337  30.9972 170.3433 0009474 103.6260 256.5434 15.10444105565036
HXMT (HUIYAN)           
1 42758U 17034A   26154.78084613  .00005473  00000+0  26995-3 0  9998
2 42758  43.0143 257.6870 0030290  58.5560 301.8244 15.18368181495621
SAOCOM 1A               
1 43641U 18076A   26154.97150010  .00000493  00000+0  68437-4 0  9998
2 43641  97.8879 341.9123 0001535  78.8069 281.3316 14.82165390414140
H-2A R/B                
1 43682U 18084L   26154.59130703  .00021476  00000+0  45823-3 0  9994
2 43682  98.8590  30.5158 0024543  85.6409 274.7638 15.44608686419027
SAOCOM 1B               
1 46265U 20059A   26154.93525211  .00000370  00000+0  53061-4 0  9993
2 46265  97.8882 340.9707 0001455  82.5923 277.5455 14.82159419311522
CSS (TIANHE)            
1 48274U 21035A   26154.92149794  .00024659  00000+0  29647-3 0  9995
2 48274  41.4695  42.7005 0009798 337.2037  22.8366 15.60222099291096
COSMOS 2550             
1 48865U 21056A   26154.26489617  .00005924  00000+0  18579-3 0  9998
2 48865  67.1411 142.0174 0008207 269.6582  90.3631 15.33822322276588
CZ-2C R/B               
1 52794U 22058K   26153.71454956  .00040633  00000+0  46803-3 0  9991
2 52794  50.1851 238.7695 0033406 206.7998 153.1250 15.60823058223389
CZ-2C R/B               
1 54039U 22132E   26154.58273661  .00057060  00000+0  47212-3 0  9993
2 54039  97.2906 161.0155 0017021 126.0527 234.2316 15.69908859203814
GSLV R/B                
1 54149U 22138AN  26154.48332142  .00002958  00000+0  25243-3 0  9996
2 54149  87.3793 137.5863 0020568 192.2219 167.8517 14.97191373196761
XRISM                   
1 57800U 23137A   26153.27519307  .00005615  00000+0  31044-3 0  9998
2 57800  31.0020  96.1840 0007694 175.1081 184.9634 15.12327778150605
ACS3                    
1 59588U 24077B   26154.63772335  .00041379  00000+0  31291-1 0  9999
2 59588  97.1690  76.4520 0041315  63.8137 296.7269 13.93351359106151
SZ-21 MODULE            
1 66515U 25246C   26152.94156862  .00047427  00000+0  30885-3 0  9999
2 66515  41.4749  42.1841 0007101 261.1371  98.8669 15.75039202 31334
