OBJECT_NAME,OBJECT_ID,EPOCH,MEAN_MOTION,ECCENTRICITY,INCLINATION,RA_OF_ASC_NODE,ARG_OF_PERICENTER,MEAN_ANOMALY,EPHEMERIS_TYPE,CLASSIFICATION_TYPE,NORAD_CAT_ID,ELEMENT_SET_NO,REV_AT_EPOCH,BSTAR,MEAN_MOTION_DOT,MEAN_MOTION_DDOT
H-2A R/B,2006-002B,2026-06-03T08:14:41.637408,15.17883795,.00496946,98.2551,308.9228,310.5493,49.1416,0,U,28932,999,10742,.32869334E-3,.6795E-4,0
RESURS-DK 1,2006-021A,2026-06-03T14:47:14.162496,15.13152913,.00059784,69.9332,14.6820,304.1389,55.9210,0,U,29228,999,10052,.14179809E-3,.2412E-4,0
CZ-4B R/B,2006-046C,2026-06-03T14:31:51.900384,15.17677148,.00317336,97.5455,199.2549,332.0223,27.9303,0,U,29507,999,7307,.24425026E-3,.4913E-4,0
CZ-2C R/B,2007-010B,2026-06-03T07:44:20.381568,14.20272773,.0059778,98.4088,263.3526,46.1443,314.4652,0,U,31114,999,99187,.73245508E-4,.119E-5,0
COSMO-SKYMED 1,2007-023A,2026-06-03T23:13:40.141344,14.97041170,.00015843,97.8863,346.7136,82.2640,277.8761,0,U,31598,999,2781,.20582858E-3,.2311E-4,0
COSMOS 2428,2007-029A,2026-06-03T14:55:12.296640,14.12931511,.00074001,70.9382,22.9610,160.8368,199.3033,0,U,31792,999,97623,-.72202781E-4,-.182E-5,0
SL-16 R/B,2007-029B,2026-06-03T14:31:18.430752,14.14847422,.00023145,70.9758,351.7816,257.9016,159.5807,0,U,31793,999,97752,.10774096E-3,.16E-5,0
KORONAS-FOTON,2009-003A,2026-06-03T20:54:13.932576,15.45435833,.0010207,82.4287,186.1475,193.1457,166.9527,0,U,33504,999,95904,.24313396E-3,.11693E-3,0
CZ-2C R/B,2011-030B,2026-06-03T11:24:26.765856,14.81436160,.00538277,97.8649,110.1101,71.6498,44.8087,0,U,37731,999,80279,.19691484E-3,.1526E-4,0
H-2A R/B,2012-025E,2026-06-03T12:13:32.871072,14.95636773,.00447641,98.4819,128.5293,33.2155,327.1859,0,U,38341,999,76104,.26861995E-3,.2975E-4,0
SHIJIAN-16 (SJ-16),2013-057A,2026-06-03T23:13:46.947936,14.92578745,.00169733,74.9733,21.7220,261.0734,98.8533,0,U,39358,999,68437,.10896027E-3,.1094E-4,0
SL-4 R/B,2014-021B,2026-06-03T15:31:29.208576,15.41642817,.00917058,51.6063,277.0919,56.7885,304.1851,0,U,39679,999,66952,.25569107E-3,.12294E-3,0
ALOS-2,2014-029A,2026-06-03T22:49:04.903680,14.79483127,.00015874,97.9215,252.3038,89.3799,270.7594,0,U,39766,999,64962,.1876029E-3,.135E-4,0
YAOGAN-29,2015-069A,2026-06-03T22:53:47.452416,14.83071936,.00029441,98.0027,183.5652,75.9587,284.1953,0,U,41038,999,56866,.21515676E-4,.121E-5,0
ASTRO-H (HITOMI),2016-012A,2026-06-02T07:09:10.946304,15.10444105,.00094747,30.9972,170.3433,103.6260,256.5434,0,U,41337,999,56503,.13655145E-3,.2399E-4,0
HXMT (HUIYAN),2017-034A,2026-06-03T18:44:25.105632,15.18368181,.00302908,43.0143,257.6870,58.5560,301.8244,0,U,42758,999,49562,.26994734E-3,.5473E-4,0
SAOCOM 1A,2018-076A,2026-06-03T23:18:57.608640,14.82165390,.00015357,97.8879,341.9123,78.8069,281.3316,0,U,43641,999,41414,.68437394E-4,.493E-5,0
H-2A R/B,2018-084L,2026-06-03T14:11:28.927392,15.44608686,.00245437,98.8590,30.5158,85.6409,274.7638,0,U,43682,999,41902,.45823225E-3,.21476E-3,0
SAOCOM 1B,2020-059A,2026-06-03T22:26:45.782304,14.82159419,.00014554,97.8882,340.9707,82.5923,277.5455,0,U,46265,999,31152,.5306066E-4,.37E-5,0
CSS (TIANHE),2021-035A,2026-06-03T22:06:57.422016,15.60222099,.00097988,41.4695,42.7005,337.2037,22.8366,0,U,48274,999,29109,.29646921E-3,.24659E-3,0
COSMOS 2550,2021-056A,2026-06-03T06:21:27.029088,15.33822322,.00082078,67.1411,142.0174,269.6582,90.3631,0,U,48865,999,27658,.18579141E-3,.5924E-4,0
CZ-2C R/B,2022-058K,2026-06-02T17:08:57.081984,15.60823058,.00334067,50.1851,238.7695,206.7998,153.1250,0,U,52794,999,22338,.46803304E-3,.40633E-3,0
CZ-2C R/B,2022-132E,2026-06-03T13:59:08.443104,15.69908859,.00170214,97.2906,161.0155,126.0527,234.2316,0,U,54039,999,20381,.47212457E-3,.5706E-3,0
GSLV R/B,2022-138AN,2026-06-03T11:35:58.970688,14.97191373,.0020568,87.3793,137.5863,192.2219,167.8517,0,U,54149,999,19676,.25243E-3,.2958E-4,0
XRISM,2023-137A,2026-06-02T06:36:16.681248,15.12327778,.00076942,31.0020,96.1840,175.1081,184.9634,0,U,57800,999,15060,.31044403E-3,.5615E-4,0
ACS3,2024-077B,2026-06-03T15:18:19.297440,13.93351359,.00413159,97.1690,76.4520,63.8137,296.7269,0,U,59588,999,10615,.31290637E-1,.41379E-3,0
SZ-21 MODULE,2025-246C,2026-06-01T22:35:51.528768,15.75039202,.00071014,41.4749,42.1841,261.1371,98.8669,0,U,66515,999,3133,.30884922E-3,.47427E-3,0
